1 41601U 16040C   19305.31758918  .00000864  00000-0  39190-4 0  9997
2 41601  97.3837  21.9957 0002432  75.9992   9.1688 15.23457490186711
1 41601U 16040C   19305.78288933  .00000822  00000-0  37438-4 0  9990
2 41601  97.3835  22.4535 0002437  75.5975  39.8478 15.23458053186789
1 41601U 16040C   19305.90939109  .00000776  00000-0  35477-4 0  9991
2 41601  97.3835  22.5779 0002442  75.5622  13.2282 15.23457870186803
1 41601U 16040C   19306.10704086  .00000747  00000-0  34256-4 0  9990
2 41601  97.3835  22.7723 0002413  75.5403  16.5548 15.23458033186835
1 41601U 16040C   19306.42993972  .00000755  00000-0  34593-4 0  9992
2 41601  97.3833  23.0902 0002404  74.7895 347.0938 15.23458667186885
1 41601U 16040C   19306.76851848  .00000751  00000-0  34427-4 0  9996
2 41601  97.3834  23.4232 0002430  75.5611  42.0521 15.23459254186939
1 41601U 16040C   19306.90107476  .00000695  00000-0  32086-4 0  9999
2 41601  97.3833  23.5534 0002412  76.4245  47.7194 15.23459046186956
1 41601U 16040C   19307.09258725  .00000682  00000-0  31531-4 0  9994
2 41601  97.3834  23.7418 0002415  76.4150  17.3967 15.23459256186985
1 41601U 16040C   19307.41571852  .00000702  00000-0  32381-4 0  9996
2 41601  97.3831  24.0600 0002398  78.1232 346.7531 15.23459918187037
1 41601U 16040C   19307.75339291  .00000691  00000-0  31906-4 0  9991
2 41601  97.3830  24.3920 0002444  78.0119  37.6383 15.23460413187087
1 41601U 16040C   19307.93932559  .00000668  00000-0  30940-4 0  9998
2 41601  97.3830  24.5750 0002500  80.8488 333.8874 15.23460462187117
1 41601U 16040C   19308.08225876  .00000657  00000-0  30490-4 0  9990
2 41601  97.3831  24.7157 0002500  80.9353  37.2094 15.23460614187133
1 41601U 16040C   19308.41293465  .00000684  00000-0  31615-4 0  9996
2 41601  97.3828  25.0412 0002508  79.7437  50.8172 15.23461269187184
1 41601U 16040C   19308.73551931  .00000667  00000-0  30921-4 0  9996
2 41601  97.3828  25.3586 0002519  79.2559  19.3733 15.23461638187230
1 41601U 16040C   19308.93562140  .00000601  00000-0  28136-4 0  9995
2 41601  97.3828  25.5555 0002520  79.1183  36.2564 15.23461367187264
1 41601U 16040C   19309.12288035  .00000599  00000-0  28051-4 0  9997
2 41601  97.3828  25.7396 0002526  79.2154 342.5157 15.23461617187296
1 41601U 16040C   19309.45082266  .00000616  00000-0  28755-4 0  9992
2 41601  97.3827  26.0620 0002505  78.6392 340.5267 15.23462175187349
1 41601U 16040C   19309.73158572  .00000570  00000-0  26817-4 0  9993
2 41601  97.3827  26.3383 0002493  77.1979  80.8134 15.23462192187389
1 41601U 16040C   19309.92108972  .00000508  00000-0  24248-4 0  9990
2 41601  97.3827  26.5249 0002471  76.5171  40.1525 15.23461913187412
1 41601U 16040C   19310.10823338  .00000478  00000-0  22982-4 0  9991
2 41601  97.3827  26.7089 0002453  76.4933 345.9002 15.23461941187441
1 41601U 16040C   19310.43615831  .00000482  00000-0  23135-4 0  9990
2 41601  97.3826  27.0313 0002432  76.5346 343.1996 15.23462405187493
1 41601U 16040C   19310.77112434  .00000462  00000-0  22290-4 0  9997
2 41601  97.3826  27.3609 0002429  75.9759  19.6895 15.23462627187546
1 41601U 16040C   19310.90693707  .00000414  00000-0  20299-4 0  9993
2 41601  97.3826  27.4945 0002424  76.1625  43.8834 15.23462383187563
1 41601U 16040C   19311.09901179  .00000402  00000-0  19775-4 0  9993
2 41601  97.3826  27.6835 0002399  75.9418  16.8560 15.23462522187595
1 41601U 16040C   19311.43476190  .00000417  00000-0  20421-4 0  9997
2 41601  97.3825  28.0138 0002366  75.2397  57.7889 15.23463019187644
1 41601U 16040C   19311.75687050  .00000411  00000-0  20178-4 0  9994
2 41601  97.3826  28.3307 0002423  75.3101  23.1815 15.23463379187694
1 41601U 16040C   19312.80717413  .00000399  00000-0  19655-4 0  9991
2 41601  97.3826  29.3642 0002432  72.6285  22.5280 15.23464284187853
1 41601U 16040C   19313.07405186  .00000412  00000-0  20214-4 0  9991
2 41601  97.3828  29.6266 0002440  72.0664  45.8362 15.23464667187892
1 41601U 16040C   19313.86026773  .00000449  00000-0  21771-4 0  9998
2 41601  97.3827  30.3998 0002414  69.8215  37.2989 15.23465726188011
1 41601U 16040C   19314.24666373  .00000474  00000-0  22816-4 0  9996
2 41601  97.3830  30.7800 0002407  68.9671 355.9750 15.23466259188073
1 41601U 16040C   19314.51855581  .00000478  00000-0  22978-4 0  9990
2 41601  97.3830  31.0476 0002409  68.5080  46.6647 15.23466576188114
1 41601U 16040C   19314.85092013  .00000446  00000-0  21609-4 0  9995
2 41601  97.3830  31.3743 0002373  69.1229  67.7254 15.23466646188167
1 41601U 16040C   19315.16962294  .00000426  00000-0  20793-4 0  9998
2 41601  97.3831  31.6883 0002337  68.9396  14.7070 15.23466829188215
1 41601U 16040C   19315.50571126  .00000452  00000-0  21886-4 0  9999
2 41601  97.3832  32.0192 0002313  68.6948  57.0421 15.23467407188266
1 41601U 16040C   19315.89988985  .00000422  00000-0  20626-4 0  9994
2 41601  97.3833  32.4067 0002291  72.2266  53.9914 15.23467625188322
1 41601U 16040C   19316.22098341  .00000437  00000-0  21240-4 0  9999
2 41601  97.3834  32.7224 0002286  70.7088  15.4134 15.23468089188377
1 41601U 16040C   19316.55428587  .00000440  00000-0  21352-4 0  9992
2 41601  97.3833  33.0506 0002284  70.0313  42.9124 15.23468503188426
1 41601U 16040C   19316.88241549  .00000451  00000-0  21845-4 0  9998
2 41601  97.3833  33.3735 0002290  69.9117  41.5020 15.23468950188470
1 41601U 16040C   19317.20484677  .00000492  00000-0  23559-4 0  9995
2 41601  97.3834  33.6906 0002279  69.3745   9.2782 15.23469604188521
1 41601U 16040C   19317.53982068  .00000540  00000-0  25553-4 0  9998
2 41601  97.3834  34.0203 0002298  67.2395  47.3982 15.23470339188572
1 41601U 16040C   19317.86771602  .00000508  00000-0  24229-4 0  9997
2 41601  97.3832  34.3426 0002264  65.2410  46.5816 15.23470472188620
1 41601U 16040C   19318.19103876  .00000538  00000-0  25467-4 0  9994
2 41601  97.3834  34.6608 0002216  66.2275  17.7220 15.23471067188679
1 41601U 16040C   19318.52741684  .00000592  00000-0  27748-4 0  9990
2 41601  97.3835  34.9917 0002225  64.7755  62.8565 15.23471788188721
1 41601U 16040C   19318.85737059  .00000564  00000-0  26593-4 0  9993
2 41601  97.3834  35.3161 0002179  64.5476  71.5538 15.23471967188773
1 41601U 16040C   19319.23832624  .00000545  00000-0  25793-4 0  9990
2 41601  97.3833  35.6910 0002124  62.8380   1.2744 15.23472334188837
1 41601U 16040C   19319.51240722  .00000561  00000-0  26431-4 0  9991
2 41601  97.3834  35.9608 0002133  62.5342  63.8128 15.23472796188876
1 41601U 16040C   19319.89979764  .00000540  00000-0  25579-4 0  9996
2 41601  97.3832  36.3418 0002138  60.7244  28.9027 15.23473105188936
1 41601U 16040C   19320.56069147  .00000543  00000-0  25692-4 0  9996
2 41601  97.3832  36.9926 0002105  60.1039  51.8764 15.23474020189038
1 41601U 16040C   19320.88896128  .00000524  00000-0  24885-4 0  9990
2 41601  97.3830  37.3152 0002089  61.8227  49.4018 15.23474299189088
1 41601U 16040C   19321.21250470  .00000538  00000-0  25474-4 0  9992
2 41601  97.3829  37.6337 0002087  61.2725  23.2919 15.23474810189134
1 41601U 16040C   19321.54685645  .00000548  00000-0  25901-4 0  9990
2 41601  97.3827  37.9623 0002078  61.7317  55.4135 15.23475313189186
1 41601U 16040C   19321.87426326  .00000509  00000-0  24258-4 0  9996
2 41601  97.3825  38.2841 0002056  61.6733  49.9855 15.23475392189237
1 41601U 16040C   19322.53352022  .00000544  00000-0  25736-4 0  9992
2 41601  97.3824  38.9321 0002009  60.7238  64.3213 15.23476392189335
1 41601U 16040C   19322.86380157  .00000503  00000-0  24002-4 0  9998
2 41601  97.3822  39.2568 0001994  59.6999  75.6149 15.23476462189389
1 41601U 16040C   19323.90078632  .00000436  00000-0  21200-4 0  9998
2 41601  97.3822  40.2767 0001893  60.5611 358.4653 15.23477045189540
1 41601U 16040C   19324.56632345  .00000399  00000-0  19627-4 0  9996
2 41601  97.3820  40.9314 0001819  58.8088  48.0274 15.23477506189643
1 41601U 16040C   19324.89829538  .00000372  00000-0  18524-4 0  9990
2 41601  97.3819  41.2576 0001799  60.3121  66.0638 15.23477686189696
1 41601U 16040C   19325.21911811  .00000404  00000-0  19848-4 0  9999
2 41601  97.3819  41.5733 0001824  60.7286  24.0800 15.23478234189740
1 41601U 16040C   19325.41245579  .00000415  00000-0  20320-4 0  9991
2 41601  97.3817  41.7635 0001796  61.0716   3.4226 15.23478503189776
1 41601U 16040C   19325.69116829  .00000436  00000-0  21194-4 0  9999
2 41601  97.3817  42.0377 0001812  60.8208  91.3001 15.23478983189819
1 41601U 16040C   19325.88083900  .00000410  00000-0  20097-4 0  9996
2 41601  97.3815  42.2242 0001786  60.4426  51.2636 15.23478951189845
1 41601U 16040C   19326.20424728  .00000451  00000-0  21830-4 0  9991
2 41601  97.3815  42.5424 0001786  60.2071  24.1047 15.23479595189899
1 41601U 16040C   19326.53479123  .00000473  00000-0  22745-4 0  9996
2 41601  97.3813  42.8674 0001803  58.2571  37.7696 15.23480072189947
1 41601U 16040C   19326.87019925  .00000439  00000-0  21314-4 0  9996
2 41601  97.3812  43.1972 0001785  56.0755  78.3242 15.23480133189991
1 41601U 16040C   19327.18939444  .00000460  00000-0  22216-4 0  9994
2 41601  97.3813  43.5109 0001756  55.7964  28.1174 15.23480632190043
1 41601U 16040C   19327.52601338  .00000491  00000-0  23501-4 0  9992
2 41601  97.3813  43.8419 0001758  55.2303  73.6976 15.23481183190096
1 41601U 16040C   19327.78634404  .00000488  00000-0  23358-4 0  9996
2 41601  97.3812  44.0980 0001733  55.2404  60.5639 15.23481438190135
1 41601U 16040C   19327.91715935  .00000449  00000-0  21760-4 0  9992
2 41601  97.3813  44.2267 0001728  54.4336  58.3697 15.23481268190157
1 41601U 16040C   19328.04992078  .00000448  00000-0  21679-4 0  9990
2 41601  97.3813  44.3573 0001705  54.1010  66.3705 15.23481435190176
1 41601U 16040C   19328.43298788  .00000496  00000-0  23691-4 0  9999
2 41601  97.3813  44.7343 0001662  52.2432   7.8281 15.23482233190237
1 41601U 16040C   19328.77149832  .00000524  00000-0  24900-4 0  9997
2 41601  97.3815  45.0672 0001635  54.5168  60.9398 15.23482882190283
